LEMUR-2-AMANDA-SVANTE   
1 48269U 21034B   26068.77637527  .00030872  00000+0  11134-2 0  9996
2 48269  97.5829 144.8625 0002703 205.4721 154.6385 15.28469003265849
STARLINK-32661          
1 62899U 25024W   26068.40879765  .00024191  00000+0  88570-3 0  9992
2 62899  42.9940 326.8932 0000085 165.8830 194.2024 15.27581087 62229
